start=new Date('2022-10-09T00:00:00.000Z').valueOf();
sats=[{"GP_ID":"214475843","BSTAR":"-0.00001649800000","TIME_SYSTEM":"UTC","PERIAPSIS":"538.479","SITE":"AFWTR","TLE_LINE2":"2 51772  53.2171 182.7251 0001813  55.2497 304.8665 15.08844108 34158","NORAD_CAT_ID":"51772","OBJECT_NAME":"STARLINK-3623","RA_OF_ASC_NODE":"182.7251","EPHEMERIS_TYPE":"0","COUNTRY_CODE":"US","MEAN_MOTION_DOT":"-0.00000551","ARG_OF_PERICENTER":"55.2497","OBJECT_TYPE":"PAYLOAD","DECAY_DATE":null,"INCLINATION":"53.2171","FILE":"3596390","SEMIMAJOR_AXIS":"6917.868","REV_AT_EPOCH":"3415","REF_FRAME":"TEME","MEAN_MOTION_DDOT":"0.0000000000000","RCS_SIZE":"LARGE","CENTER_NAME":"EARTH","OBJECT_ID":"2022-017E","MEAN_ANOMALY":"304.8665","LAUNCH_DATE":"2022-02-25","ECCENTRICITY":"0.00018130","EPOCH":"2022-10-08T10:34:41.042784","MEAN_ELEMENT_THEORY":"SGP4","APOAPSIS":"540.987","CLASSIFICATION_TYPE":"U","PERIOD":"95.437","ELEMENT_SET_NO":"999","MEAN_MOTION":"15.08844108","TLE_LINE1":"1 51772U 22017E   22281.44075281 -.00000551  00000-0 -16498-4 0  9995"},{"RA_OF_ASC_NODE":"182.6848","OBJECT_NAME":"STARLINK-3624","EPHEMERIS_TYPE":"0","DECAY_DATE":null,"OBJECT_TYPE":"PAYLOAD","COUNTRY_CODE":"US","ARG_OF_PERICENTER":"57.8157","MEAN_MOTION_DOT":"0.00002464","INCLINATION":"53.2173","TIME_SYSTEM":"UTC","BSTAR":"0.00017283000000","GP_ID":"214477093","SITE":"AFWTR","PERIAPSIS":"538.510","NORAD_CAT_ID":"51773","TLE_LINE2":"2 51773  53.2173 182.6848 0001769  57.8157 302.3006 15.08843732 34168","MEAN_ELEMENT_THEORY":"SGP4","EPOCH":"2022-10-08T10:45:17.489376","CLASSIFICATION_TYPE":"U","APOAPSIS":"540.958","PERIOD":"95.437","ELEMENT_SET_NO":"999","TLE_LINE1":"1 51773U 22017F   22281.44811909  .00002464  00000-0  17283-3 0  9996","MEAN_MOTION":"15.08843732","FILE":"3596390","MEAN_MOTION_DDOT":"0.0000000000000","REF_FRAME":"TEME","REV_AT_EPOCH":"3416","SEMIMAJOR_AXIS":"6917.869","CENTER_NAME":"EARTH","OBJECT_ID":"2022-017F","MEAN_ANOMALY":"302.3006","RCS_SIZE":"LARGE","ECCENTRICITY":"0.00017690","LAUNCH_DATE":"2022-02-25"},{"RA_OF_ASC_NODE":"182.7548","OBJECT_NAME":"STARLINK-3629","EPHEMERIS_TYPE":"0","OBJECT_TYPE":"PAYLOAD","DECAY_DATE":null,"COUNTRY_CODE":"US","ARG_OF_PERICENTER":"50.7352","MEAN_MOTION_DOT":"0.00000275","INCLINATION":"53.2166","BSTAR":"0.00003536700000","TIME_SYSTEM":"UTC","GP_ID":"214477337","SITE":"AFWTR","PERIAPSIS":"538.669","NORAD_CAT_ID":"51774","TLE_LINE2":"2 51774  53.2166 182.7548 0001555  50.7352 309.3778 15.08840225 34124","MEAN_ELEMENT_THEORY":"SGP4","EPOCH":"2022-10-08T10:24:05.845536","CLASSIFICATION_TYPE":"U","APOAPSIS":"540.820","ELEMENT_SET_NO":"999","PERIOD":"95.438","TLE_LINE1":"1 51774U 22017G   22281.43340099  .00000275  00000-0  35367-4 0  9995","MEAN_MOTION":"15.08840225","FILE":"3596390","MEAN_MOTION_DDOT":"0.0000000000000","REF_FRAME":"TEME","REV_AT_EPOCH":"3412","SEMIMAJOR_AXIS":"6917.880","MEAN_ANOMALY":"309.3778","OBJECT_ID":"2022-017G","CENTER_NAME":"EARTH","RCS_SIZE":"LARGE","ECCENTRICITY":"0.00015550","LAUNCH_DATE":"2022-02-25"},{"TLE_LINE2":"2 51775  53.2183 182.7124 0001810  43.8812 316.2323 15.08830230 34164","NORAD_CAT_ID":"51775","PERIAPSIS":"538.523","SITE":"AFWTR","GP_ID":"214476094","TIME_SYSTEM":"UTC","BSTAR":"-0.00001553200000","INCLINATION":"53.2183","MEAN_MOTION_DOT":"-0.00000535","COUNTRY_CODE":"US","ARG_OF_PERICENTER":"43.8812","DECAY_DATE":null,"OBJECT_TYPE":"PAYLOAD","EPHEMERIS_TYPE":"0","OBJECT_NAME":"STARLINK-3620","RA_OF_ASC_NODE":"182.7124","LAUNCH_DATE":"2022-02-25","ECCENTRICITY":"0.00018100","RCS_SIZE":"LARGE","CENTER_NAME":"EARTH","OBJECT_ID":"2022-017H","MEAN_ANOMALY":"316.2323","SEMIMAJOR_AXIS":"6917.910","REV_AT_EPOCH":"3416","REF_FRAME":"TEME","MEAN_MOTION_DDOT":"0.0000000000000","FILE":"3596390","MEAN_MOTION":"15.08830230","TLE_LINE1":"1 51775U 22017H   22281.44444226 -.00000535  00000-0 -15532-4 0  9997","ELEMENT_SET_NO":"999","PERIOD":"95.438","APOAPSIS":"541.027","CLASSIFICATION_TYPE":"U","EPOCH":"2022-10-08T10:39:59.811264","MEAN_ELEMENT_THEORY":"SGP4"},{"CENTER_NAME":"EARTH","OBJECT_ID":"2022-017J","MEAN_ANOMALY":"291.5068","RCS_SIZE":"LARGE","ECCENTRICITY":"0.00014550","LAUNCH_DATE":"2022-02-25","FILE":"3596390","REF_FRAME":"TEME","MEAN_MOTION_DDOT":"0.0000000000000","SEMIMAJOR_AXIS":"6917.931","REV_AT_EPOCH":"3412","PERIOD":"95.439","ELEMENT_SET_NO":"999","TLE_LINE1":"1 51776U 22017J   22281.42972534  .00001007  00000-0  81390-4 0  9992","MEAN_MOTION":"15.08823492","MEAN_ELEMENT_THEORY":"SGP4","EPOCH":"2022-10-08T10:18:48.269376","APOAPSIS":"540.802","CLASSIFICATION_TYPE":"U","SITE":"AFWTR","PERIAPSIS":"538.789","NORAD_CAT_ID":"51776","TLE_LINE2":"2 51776  53.2185 182.7782 0001455  68.6079 291.5068 15.08823492 34121","BSTAR":"0.00008139000000","TIME_SYSTEM":"UTC","GP_ID":"214476343","DECAY_DATE":null,"OBJECT_TYPE":"PAYLOAD","MEAN_MOTION_DOT":"0.00001007","COUNTRY_CODE":"US","ARG_OF_PERICENTER":"68.6079","INCLINATION":"53.2185","RA_OF_ASC_NODE":"182.7782","OBJECT_NAME":"STARLINK-3608","EPHEMERIS_TYPE":"0"},{"ECCENTRICITY":"0.00019980","LAUNCH_DATE":"2022-02-25","OBJECT_ID":"2022-017K","CENTER_NAME":"EARTH","MEAN_ANOMALY":"313.1585","RCS_SIZE":"LARGE","MEAN_MOTION_DDOT":"0.0000000000000","REF_FRAME":"TEME","REV_AT_EPOCH":"3415","SEMIMAJOR_AXIS":"6917.917","FILE":"3596390","TLE_LINE1":"1 51777U 22017K   22281.43708478  .00000342  00000-0  39623-4 0  9991","MEAN_MOTION":"15.08828108","ELEMENT_SET_NO":"999","PERIOD":"95.438","CLASSIFICATION_TYPE":"U","APOAPSIS":"541.164","MEAN_ELEMENT_THEORY":"SGP4","EPOCH":"2022-10-08T10:29:24.124992","NORAD_CAT_ID":"51777","TLE_LINE2":"2 51777  53.2182 182.7451 0001998  46.9574 313.1585 15.08828108 34150","SITE":"AFWTR","PERIAPSIS":"538.400","TIME_SYSTEM":"UTC","BSTAR":"0.00003962300000","GP_ID":"214476594","INCLINATION":"53.2182","DECAY_DATE":null,"OBJECT_TYPE":"PAYLOAD","ARG_OF_PERICENTER":"46.9574","COUNTRY_CODE":"US","MEAN_MOTION_DOT":"0.00000342","EPHEMERIS_TYPE":"0","RA_OF_ASC_NODE":"182.7451","OBJECT_NAME":"STARLINK-3625"},{"INCLINATION":"53.2161","MEAN_MOTION_DOT":"0.00000269","COUNTRY_CODE":"US","ARG_OF_PERICENTER":"49.1991","DECAY_DATE":null,"OBJECT_TYPE":"PAYLOAD","EPHEMERIS_TYPE":"0","OBJECT_NAME":"STARLINK-3615","RA_OF_ASC_NODE":"170.8968","TLE_LINE2":"2 51778  53.2161 170.8968 0001793  49.1991 310.9157 15.08846213 34179","NORAD_CAT_ID":"51778","PERIAPSIS":"538.486","SITE":"AFWTR","GP_ID":"214507290","BSTAR":"0.00003502000000","TIME_SYSTEM":"UTC","MEAN_MOTION":"15.08846213","TLE_LINE1":"1 51778U 22017L   22281.84743716  .00000269  00000-0  35020-4 0  9996","PERIOD":"95.437","ELEMENT_SET_NO":"999","APOAPSIS":"540.967","CLASSIFICATION_TYPE":"U","EPOCH":"2022-10-08T20:20:18.570624","MEAN_ELEMENT_THEORY":"SGP4","LAUNCH_DATE":"2022-02-25","ECCENTRICITY":"0.00017930","RCS_SIZE":"LARGE","CENTER_NAME":"EARTH","OBJECT_ID":"2022-017L","MEAN_ANOMALY":"310.9157","SEMIMAJOR_AXIS":"6917.861","REV_AT_EPOCH":"3417","REF_FRAME":"TEME","MEAN_MOTION_DDOT":"0.0000000000000","FILE":"3596607"},{"MEAN_MOTION_DOT":"0.00001198","COUNTRY_CODE":"US","ARG_OF_PERICENTER":"46.4589","OBJECT_TYPE":"PAYLOAD","DECAY_DATE":null,"INCLINATION":"53.2199","OBJECT_NAME":"STARLINK-3611","RA_OF_ASC_NODE":"182.7978","EPHEMERIS_TYPE":"0","PERIAPSIS":"538.437","SITE":"AFWTR","TLE_LINE2":"2 51779  53.2199 182.7978 0001915  46.4589 313.6562 15.08834743 34123","NORAD_CAT_ID":"51779","GP_ID":"214475595","TIME_SYSTEM":"UTC","BSTAR":"0.00009337400000","ELEMENT_SET_NO":"999","PERIOD":"95.438","MEAN_MOTION":"15.08834743","TLE_LINE1":"1 51779U 22017M   22281.42603936  .00001198  00000-0  93374-4 0  9998","EPOCH":"2022-10-08T10:13:29.800704","MEAN_ELEMENT_THEORY":"SGP4","CLASSIFICATION_TYPE":"U","APOAPSIS":"541.086","RCS_SIZE":"LARGE","CENTER_NAME":"EARTH","OBJECT_ID":"2022-017M","MEAN_ANOMALY":"313.6562","LAUNCH_DATE":"2022-02-25","ECCENTRICITY":"0.00019150","FILE":"3596390","REV_AT_EPOCH":"3412","SEMIMAJOR_AXIS":"6917.896","MEAN_MOTION_DDOT":"0.0000000000000","REF_FRAME":"TEME"},{"BSTAR":"-0.00000081331000","TIME_SYSTEM":"UTC","GP_ID":"214475844","SITE":"AFWTR","PERIAPSIS":"538.798","NORAD_CAT_ID":"51780","TLE_LINE2":"2 51780  53.2182 184.0401 0001383  68.7506 291.3634 15.08836803 33937","RA_OF_ASC_NODE":"184.0401","OBJECT_NAME":"STARLINK-3617","EPHEMERIS_TYPE":"0","DECAY_DATE":null,"OBJECT_TYPE":"PAYLOAD","MEAN_MOTION_DOT":"-0.00000301","COUNTRY_CODE":"US","ARG_OF_PERICENTER":"68.7506","INCLINATION":"53.2182","FILE":"3596390","MEAN_MOTION_DDOT":"0.0000000000000","REF_FRAME":"TEME","REV_AT_EPOCH":"3393","SEMIMAJOR_AXIS":"6917.890","OBJECT_ID":"2022-017N","MEAN_ANOMALY":"291.3634","CENTER_NAME":"EARTH","RCS_SIZE":"LARGE","ECCENTRICITY":"0.00013830","LAUNCH_DATE":"2022-02-25","MEAN_ELEMENT_THEORY":"SGP4","EPOCH":"2022-10-08T03:37:26.329152","CLASSIFICATION_TYPE":"U","APOAPSIS":"540.712","ELEMENT_SET_NO":"999","PERIOD":"95.438","TLE_LINE1":"1 51780U 22017N   22281.15099918 -.00000301  00000-0 -81331-6 0  9998","MEAN_MOTION":"15.08836803"},{"CLASSIFICATION_TYPE":"U","APOAPSIS":"540.959","MEAN_ELEMENT_THEORY":"SGP4","EPOCH":"2022-10-08T10:08:12.542496","TLE_LINE1":"1 51781U 22017P   22281.42236739  .00000784  00000-0  67359-4 0  9998","MEAN_MOTION":"15.08827322","ELEMENT_SET_NO":"999","PERIOD":"95.438","MEAN_MOTION_DDOT":"0.0000000000000","REF_FRAME":"TEME","REV_AT_EPOCH":"3397","SEMIMAJOR_AXIS":"6917.919","FILE":"3596390","ECCENTRICITY":"0.00016980","LAUNCH_DATE":"2022-02-25","MEAN_ANOMALY":"314.5480","CENTER_NAME":"EARTH","OBJECT_ID":"2022-017P","RCS_SIZE":"LARGE","EPHEMERIS_TYPE":"0","RA_OF_ASC_NODE":"182.8149","OBJECT_NAME":"STARLINK-3580","INCLINATION":"53.2182","DECAY_DATE":null,"OBJECT_TYPE":"PAYLOAD","COUNTRY_CODE":"US","MEAN_MOTION_DOT":"0.00000784","ARG_OF_PERICENTER":"45.5650","TIME_SYSTEM":"UTC","BSTAR":"0.00006735900000","GP_ID":"214477094","NORAD_CAT_ID":"51781","TLE_LINE2":"2 51781  53.2182 182.8149 0001698  45.5650 314.5480 15.08827322 33972","SITE":"AFWTR","PERIAPSIS":"538.609"}];
